*******************************************************************************
Ephemeris / WWW_USER Mon Jul 15 19:31:13 2024 Pasadena, USA      / Horizons    
*******************************************************************************
Target body name: Hale-Bopp (C/1995 O1)           {source: JPL#226}
Center body name: Earth (399)                     {source: DE441}
Center-site name: Gemini South Obs., Cerro Pachon
*******************************************************************************
Start time      : A.D. 2018-Nov-06 23:18:00.0000 UT      
Stop  time      : A.D. 2018-Nov-07 09:34:00.0000 UT      
Step-size       : 1 minutes
*******************************************************************************
Target pole/equ : undefined
Target radii    : 30. km                                                       
Center geodetic : 289.2634, -30.2406227, 2.71233  {E-lon(deg),Lat(deg),Alt(km)}
Center cylindric: 289.2634,5517.21435,-3194.81213 {E-lon(deg),Dxy(km),Dz(km)}
Center pole/equ : ITRF93                          {East-longitude positive}
Center radii    : 6378.137, 6378.137, 6356.752 km {Equator_a, b, pole_c}       
Target primary  : Sun
Vis. interferer : MOON (R_eq= 1737.400) km        {source: DE441}
Rel. light bend : Sun                             {source: DE441}
Rel. lght bnd GM: 1.3271E+11 km^3/s^2                                          
Small-body perts: Yes                             {source: SB441-N16}
Atmos refraction: NO (AIRLESS)
RA format       : HMS
Time format     : CAL 
Calendar mode   : Mixed Julian/Gregorian
RTS-only print  : NO       
EOP file        : eop.240715.p241008                                           
EOP coverage    : DATA-BASED 1962-JAN-20 TO 2024-JUL-15. PREDICTS-> 2024-OCT-07
Units conversion: 1 au= 149597870.700 km, c= 299792.458 km/s, 1 day= 86400.0 s 
Table cut-offs 1: Elevation (-90.0deg=NO ),Airmass (>38.000=NO), Daylight (YES)
Table cut-offs 2: Solar elongation (  0.0,180.0=NO ),Local Hour Angle( 0.0=NO )
Table cut-offs 3: RA/DEC angular rate (     0.0=NO )                           
*******************************************************************************
Initial IAU76/J2000 heliocentric ecliptic osculating elements (au, days, deg.):
  EPOCH=  2459837.5 ! 2022-Sep-15.0000000 (TDB)    RMSW= n.a.                  
   EC= .9949810027633206   QR= .890537663547794    TP= 2450537.1349071441      
   OM= 282.7334213961641   W= 130.4146670659176    IN= 89.28759424740302       
  Equivalent ICRF heliocentric cartesian coordinates (au, au/d):
   X= 3.907631452214869E+00  Y=-1.373895334060347E+00  Z=-4.624358508575312E+01
  VX= 3.778244409519935E-04 VY=-5.803173067116371E-04 VZ=-3.255716412104052E-03
Comet physical (GM= km^3/s^2; RAD= km):                                        
   GM= n.a.                RAD= 30.                                            
   M1=  4.8      M2=  n.a.     k1=  4.     k2= n.a.     PHCOF= n.a.            
*******************************************************************************
 Date__(UT)__HR:MN     R.A._________(ICRF)_________DEC
******************************************************
$$SOE
 2018-Nov-07 01:22     22 23 40.735602 -86 01 55.90652
 2018-Nov-07 01:23     22 23 40.716368 -86 01 55.85217
 2018-Nov-07 01:24     22 23 40.697136 -86 01 55.79782
 2018-Nov-07 01:25     22 23 40.677905 -86 01 55.74346
 2018-Nov-07 01:26     22 23 40.658677 -86 01 55.68910
 2018-Nov-07 01:27     22 23 40.639451 -86 01 55.63474
 2018-Nov-07 01:28     22 23 40.620226 -86 01 55.58037
 2018-Nov-07 01:29     22 23 40.601004 -86 01 55.52600
 2018-Nov-07 01:30     22 23 40.581784 -86 01 55.47163
 2018-Nov-07 01:31     22 23 40.562565 -86 01 55.41725
 2018-Nov-07 01:32     22 23 40.543349 -86 01 55.36287
 2018-Nov-07 01:33     22 23 40.524135 -86 01 55.30849
 2018-Nov-07 01:34     22 23 40.504922 -86 01 55.25410
 2018-Nov-07 01:35     22 23 40.485712 -86 01 55.19971
 2018-Nov-07 01:36     22 23 40.466504 -86 01 55.14531
 2018-Nov-07 01:37     22 23 40.447298 -86 01 55.09091
 2018-Nov-07 01:38     22 23 40.428094 -86 01 55.03651
 2018-Nov-07 01:39     22 23 40.408892 -86 01 54.98211
 2018-Nov-07 01:40     22 23 40.389692 -86 01 54.92770
 2018-Nov-07 01:41     22 23 40.370495 -86 01 54.87328
 2018-Nov-07 01:42     22 23 40.351299 -86 01 54.81887
 2018-Nov-07 01:43     22 23 40.332106 -86 01 54.76445
 2018-Nov-07 01:44     22 23 40.312915 -86 01 54.71003
 2018-Nov-07 01:45     22 23 40.293726 -86 01 54.65560
 2018-Nov-07 01:46     22 23 40.274539 -86 01 54.60117
 2018-Nov-07 01:47     22 23 40.255355 -86 01 54.54674
 2018-Nov-07 01:48     22 23 40.236173 -86 01 54.49230
 2018-Nov-07 01:49     22 23 40.216993 -86 01 54.43786
 2018-Nov-07 01:50     22 23 40.197815 -86 01 54.38342
 2018-Nov-07 01:51     22 23 40.178639 -86 01 54.32897
 2018-Nov-07 01:52     22 23 40.159466 -86 01 54.27452
 2018-Nov-07 01:53     22 23 40.140295 -86 01 54.22007
 2018-Nov-07 01:54     22 23 40.121127 -86 01 54.16561
 2018-Nov-07 01:55     22 23 40.101961 -86 01 54.11115
 2018-Nov-07 01:56     22 23 40.082797 -86 01 54.05669
 2018-Nov-07 01:57     22 23 40.063635 -86 01 54.00222
 2018-Nov-07 01:58     22 23 40.044476 -86 01 53.94775
 2018-Nov-07 01:59     22 23 40.025319 -86 01 53.89327
 2018-Nov-07 02:00     22 23 40.006165 -86 01 53.83880
 2018-Nov-07 02:01     22 23 39.987013 -86 01 53.78432
 2018-Nov-07 02:02     22 23 39.967863 -86 01 53.72983
 2018-Nov-07 02:03     22 23 39.948716 -86 01 53.67535
 2018-Nov-07 02:04     22 23 39.929571 -86 01 53.62086
 2018-Nov-07 02:05     22 23 39.910429 -86 01 53.56636
 2018-Nov-07 02:06     22 23 39.891289 -86 01 53.51187
 2018-Nov-07 02:07     22 23 39.872151 -86 01 53.45737
 2018-Nov-07 02:08     22 23 39.853017 -86 01 53.40286
 2018-Nov-07 02:09     22 23 39.833884 -86 01 53.34836
 2018-Nov-07 02:10     22 23 39.814754 -86 01 53.29385
 2018-Nov-07 02:11     22 23 39.795627 -86 01 53.23933
 2018-Nov-07 02:12     22 23 39.776502 -86 01 53.18482
 2018-Nov-07 02:13     22 23 39.757380 -86 01 53.13030
 2018-Nov-07 02:14     22 23 39.738260 -86 01 53.07577
 2018-Nov-07 02:15     22 23 39.719143 -86 01 53.02125
 2018-Nov-07 02:16     22 23 39.700029 -86 01 52.96672
 2018-Nov-07 02:17     22 23 39.680917 -86 01 52.91218
 2018-Nov-07 02:18     22 23 39.661807 -86 01 52.85765
 2018-Nov-07 02:19     22 23 39.642701 -86 01 52.80311
 2018-Nov-07 02:20     22 23 39.623597 -86 01 52.74857
 2018-Nov-07 02:21     22 23 39.604495 -86 01 52.69402
 2018-Nov-07 02:22     22 23 39.585397 -86 01 52.63947
 2018-Nov-07 02:23     22 23 39.566301 -86 01 52.58492
 2018-Nov-07 02:24     22 23 39.547207 -86 01 52.53037
 2018-Nov-07 02:25     22 23 39.528117 -86 01 52.47581
 2018-Nov-07 02:26     22 23 39.509029 -86 01 52.42125
 2018-Nov-07 02:27     22 23 39.489943 -86 01 52.36668
 2018-Nov-07 02:28     22 23 39.470861 -86 01 52.31212
 2018-Nov-07 02:29     22 23 39.451781 -86 01 52.25755
 2018-Nov-07 02:30     22 23 39.432704 -86 01 52.20297
 2018-Nov-07 02:31     22 23 39.413630 -86 01 52.14840
 2018-Nov-07 02:32     22 23 39.394558 -86 01 52.09382
 2018-Nov-07 02:33     22 23 39.375490 -86 01 52.03923
 2018-Nov-07 02:34     22 23 39.356424 -86 01 51.98465
 2018-Nov-07 02:35     22 23 39.337361 -86 01 51.93006
 2018-Nov-07 02:36     22 23 39.318301 -86 01 51.87547
 2018-Nov-07 02:37     22 23 39.299243 -86 01 51.82087
 2018-Nov-07 02:38     22 23 39.280189 -86 01 51.76628
 2018-Nov-07 02:39     22 23 39.261137 -86 01 51.71168
 2018-Nov-07 02:40     22 23 39.242088 -86 01 51.65707
 2018-Nov-07 02:41     22 23 39.223042 -86 01 51.60246
 2018-Nov-07 02:42     22 23 39.203999 -86 01 51.54786
 2018-Nov-07 02:43     22 23 39.184959 -86 01 51.49324
 2018-Nov-07 02:44     22 23 39.165922 -86 01 51.43863
 2018-Nov-07 02:45     22 23 39.146888 -86 01 51.38401
 2018-Nov-07 02:46     22 23 39.127856 -86 01 51.32939
 2018-Nov-07 02:47     22 23 39.108828 -86 01 51.27476
 2018-Nov-07 02:48     22 23 39.089802 -86 01 51.22013
 2018-Nov-07 02:49     22 23 39.070780 -86 01 51.16550
 2018-Nov-07 02:50     22 23 39.051760 -86 01 51.11087
 2018-Nov-07 02:51     22 23 39.032744 -86 01 51.05624
 2018-Nov-07 02:52     22 23 39.013731 -86 01 51.00160
 2018-Nov-07 02:53     22 23 38.994720 -86 01 50.94695
 2018-Nov-07 02:54     22 23 38.975713 -86 01 50.89231
 2018-Nov-07 02:55     22 23 38.956708 -86 01 50.83766
 2018-Nov-07 02:56     22 23 38.937707 -86 01 50.78301
 2018-Nov-07 02:57     22 23 38.918709 -86 01 50.72836
 2018-Nov-07 02:58     22 23 38.899713 -86 01 50.67370
 2018-Nov-07 02:59     22 23 38.880721 -86 01 50.61904
 2018-Nov-07 03:00     22 23 38.861732 -86 01 50.56438
 2018-Nov-07 03:01     22 23 38.842746 -86 01 50.50972
 2018-Nov-07 03:02     22 23 38.823763 -86 01 50.45505
 2018-Nov-07 03:03     22 23 38.804784 -86 01 50.40038
 2018-Nov-07 03:04     22 23 38.785807 -86 01 50.34571
 2018-Nov-07 03:05     22 23 38.766834 -86 01 50.29103
 2018-Nov-07 03:06     22 23 38.747863 -86 01 50.23635
 2018-Nov-07 03:07     22 23 38.728896 -86 01 50.18167
 2018-Nov-07 03:08     22 23 38.709932 -86 01 50.12699
 2018-Nov-07 03:09     22 23 38.690972 -86 01 50.07230
 2018-Nov-07 03:10     22 23 38.672014 -86 01 50.01761
 2018-Nov-07 03:11     22 23 38.653060 -86 01 49.96292
 2018-Nov-07 03:12     22 23 38.634109 -86 01 49.90823
 2018-Nov-07 03:13     22 23 38.615161 -86 01 49.85353
 2018-Nov-07 03:14     22 23 38.596216 -86 01 49.79883
 2018-Nov-07 03:15     22 23 38.577274 -86 01 49.74413
 2018-Nov-07 03:16     22 23 38.558336 -86 01 49.68943
 2018-Nov-07 03:17     22 23 38.539401 -86 01 49.63472
 2018-Nov-07 03:18     22 23 38.520470 -86 01 49.58001
 2018-Nov-07 03:19     22 23 38.501541 -86 01 49.52530
 2018-Nov-07 03:20     22 23 38.482616 -86 01 49.47058
 2018-Nov-07 03:21     22 23 38.463694 -86 01 49.41586
 2018-Nov-07 03:22     22 23 38.444776 -86 01 49.36114
 2018-Nov-07 03:23     22 23 38.425861 -86 01 49.30642
 2018-Nov-07 03:24     22 23 38.406949 -86 01 49.25169
 2018-Nov-07 03:25     22 23 38.388040 -86 01 49.19697
